IXPE                    
1 49954U 21121A   24252.91667824  .00015897  00000+0  11831-2 0  9991
2 49954   0.2283 131.0319 0009257  84.3824 106.5876 14.99722406  5055
